              M50 Cartesian                         J2K Cartesian  
    -----------------------------------       --------------------------------
     X    =       16917606.24                 X    =         5171451.24
     Y    =        1739993.97  feet           Y    =          588096.53  meter
     Z    =      -14371904.69                 Z    =        -4355471.66
     XDOT =     -11568.368354                 XDOT =       -3574.659886
     YDOT =      19245.963703  feet/sec       YDOT =        5826.466927  meter/sec
     ZDOT =     -11288.694006                 ZDOT =       -3458.041187
 
              TDR Cartesian                         TDR Cartesian  
    -----------------------------------       --------------------------------
     X    =       16877341.32                 X    =         5144213.64
     Y    =        2739759.93  feet           Y    =          835078.83  meter
     Z    =      -14263018.25                 Z    =        -4347367.96
     XDOT =     -12411.757100                 XDOT =       -3783.103564
     YDOT =      17302.094425  feet/sec       YDOT =        5273.678381  meter/sec
     ZDOT =     -11364.542036                 ZDOT =       -3463.912413
  
  
    The mean element set is posted at the UTC for which position is
    just north of the next ascending node relative to the above
    vector time
 
 
    TWO LINE MEAN ELEMENT SET
  
    ISS
    1 25544U 98067A   16079.52238756  .00016717  00000-0  10270-3 0  9019
    2 25544  51.6417 145.2238 0001885 319.0876  41.0135 15.54182550 31034
  
  
    Satellite: ISS
    Catalog Number: 25544
    Epoch time:      16079.52238756   =   yrday.fracday
    Element set:     901
    Inclination:       51.6417  deg
    RA of node:       145.2238  deg
    Eccentricity:     .0001885     
    Arg of perigee:   319.0876  deg
    Mean anomaly:      41.0135  deg
    Mean motion:   15.54182550  rev/day
    Decay rate:    1.67170E-04  rev/day^2
    Epoch rev:            3103
    Checksum:              297
 
 
    Coasting Arc #3 (Orbit 3118)
    ---------------------------------------
 
    Vector Time (GMT): 2016/080/12:00:00.000
    Vector Time (MET): N/A
    Weight (LBS)     : 890369.9
 
              M50 Cartesian                         M50 Keplerian  
    -----------------------------------       --------------------------------
     X    =       -4041662.00                 A    =         6778001.82  meter
     Y    =       -1828545.77  meter          E    =           .0003370
     Z    =        5122402.81                 I    =           51.86105
     XDOT =       4736.425097                 Wp   =          114.07958
     YDOT =      -5799.430844  meter/sec      RA   =          139.29208  deg
     ZDOT =       1664.691592                 TA   =          319.89063
                                              MA   =          319.91551
                                              Ha   =            220.657  n.mi
                                              Hp   =            214.910
 
              M50 Cartesian                         J2K Cartesian  
    -----------------------------------       --------------------------------
     X    =      -13260045.94                 X    =        -4045796.53
     Y    =       -5999165.90  feet           Y    =        -1873764.70  meter
     Z    =       16805783.51                 Z    =         5102759.87
     XDOT =      15539.452418                 XDOT =        4792.837486
     YDOT =     -19027.004083  feet/sec       YDOT =       -5746.149330  meter/sec
     ZDOT =       5461.586588                 ZDOT =        1687.837559
 
              TDR Cartesian                         TDR Cartesian  
    -----------------------------------       --------------------------------
     X    =      -13105088.78                 X    =        -3994431.06
     Y    =       -6551855.86  feet           Y    =        -1997005.66  meter
     Z    =       16720735.69                 Z    =         5096480.24
     XDOT =      15808.923975                 XDOT =        4818.560027
     YDOT =     -17405.363716  feet/sec       YDOT =       -5305.154861  meter/sec
     ZDOT =       5563.060302                 ZDOT =        1695.620780
  
  
    The mean element set is posted at the UTC for which position is
    just north of the next ascending node relative to the above
    vector time
 
 
    TWO LINE MEAN ELEMENT SET
  
    ISS
    1 25544U 98067A   16080.55116674  .00016717  00000-0  10270-3 0  9029
    2 25544  51.6421 140.0945 0001969 324.6210  35.4812 15.54230308 31195
  
  
    Satellite: ISS
    Catalog Number: 25544
    Epoch time:      16080.55116674   =   yrday.fracday
    Element set:     902
    Inclination:       51.6421  deg
    RA of node:       140.0945  deg
    Eccentricity:     .0001969     
    Arg of perigee:   324.6210  deg
    Mean anomaly:      35.4812  deg
    Mean motion:   15.54230308  rev/day
    Decay rate:    1.67170E-04  rev/day^2
    Epoch rev:            3119
    Checksum:              278
 
 
    Coasting Arc #4 (Orbit 3133)
    ---------------------------------------
 
    Vector Time (GMT): 2016/081/12:00:00.000
    Vector Time (MET): N/A
    Weight (LBS)     : 890369.9
 
              M50 Cartesian                         M50 Keplerian  
    -----------------------------------       --------------------------------
     X    =        2757406.16                 A    =         6777129.12  meter
     Y    =        3165064.77  meter          E    =           .0013921
     Z    =       -5332482.81                 I    =           51.88121
     XDOT =      -5512.356699                 Wp   =           85.18517
     YDOT =       5308.127111  meter/sec      RA   =          134.30685  deg
     ZDOT =        302.005526                 TA   =          187.67722
                                              MA   =          187.69856
                                              Ha   =            220.643  n.mi
                                              Hp   =            214.947
 
              M50 Cartesian                         J2K Cartesian  
    -----------------------------------       --------------------------------
     X    =        9046608.14                 X    =         2747711.38
     Y    =       10384070.77  feet           Y    =         3195844.88  meter
     Z    =      -17495022.34                 Z    =        -5319112.17
     XDOT =     -18085.159772                 XDOT =       -5572.770807
     YDOT =      17415.115193  feet/sec       YDOT =        5246.146525  meter/sec
     ZDOT =        990.831777                 ZDOT =         275.080541
 
              TDR Cartesian                         TDR Cartesian  
    -----------------------------------       --------------------------------
     X    =        8900093.21                 X    =         2712748.41
     Y    =       10605191.43  feet           Y    =         3232462.35  meter
     Z    =      -17437434.06                 Z    =        -5314929.90
     XDOT =     -17741.720942                 XDOT =       -5407.676543
     YDOT =      16314.817213  feet/sec       YDOT =        4972.756286  meter/sec
     ZDOT =        873.005659                 ZDOT =         266.092125
  
  
    The mean element set is posted at the UTC for which position is
    just north of the next ascending node relative to the above
    vector time
 
 
    TWO LINE MEAN ELEMENT SET
  
    ISS
    1 25544U 98067A   16081.51563729  .00016717  00000-0  10270-3 0  9034
    2 25544  51.6416 135.2855 0002028 331.5760  28.5281 15.54214517 31343
  
  
    Satellite: ISS
    Catalog Number: 25544
    Epoch time:      16081.51563729   =   yrday.fracday
    Element set:     903
    Inclination:       51.6416  deg
    RA of node:       135.2855  deg
    Eccentricity:     .0002028     
    Arg of perigee:   331.5760  deg
    Mean anomaly:      28.5281  deg
    Mean motion:   15.54214517  rev/day
    Decay rate:    1.67170E-04  rev/day^2
    Epoch rev:            3134
    Checksum:              291
 
 
    Coasting Arc #5 (Orbit 3149)
    ---------------------------------------
 
    Vector Time (GMT): 2016/082/12:00:00.000
    Vector Time (MET): N/A
    Weight (LBS)     : 890369.9
 
              M50 Cartesian                         M50 Keplerian  
    -----------------------------------       --------------------------------
     X    =       -1397208.78                 A    =         6778520.98  meter
     Y    =       -4414947.40  meter          E    =           .0007062
     Z    =        4948036.84                 I    =           51.90805
     XDOT =       5874.652867                 Wp   =           41.06772
     YDOT =      -4388.390343  meter/sec      RA   =          129.32431  deg
     ZDOT =      -2249.726061                 TA   =           70.85172
                                              MA   =           70.77529
                                              Ha   =            220.636  n.mi
                                              Hp   =            214.705
 
              M50 Cartesian                         J2K Cartesian  
    -----------------------------------       --------------------------------
     X    =       -4584018.29                 X    =        -1371771.21
     Y    =      -14484735.56  feet           Y    =        -4430428.88  meter
     Z    =       16233716.68                 Z    =         4941312.09
     XDOT =      19273.795494                 XDOT =        5934.216470
     YDOT =     -14397.606113  feet/sec       YDOT =       -4322.363393  meter/sec
     ZDOT =      -7380.991013                 ZDOT =       -2221.043233
 
